C/2022 F2 (NEOWISE),e,97.2934,58.6973,200.6226,23.83013,0.0084726,0.93348351,3.4279,05/02.0/2023,2000,g 14.5,4.0
# From MPEC 2022-P82
C/2022 H1 (PANSTARRS),e,49.8701,6.3666,246.2613,951.4310,0.0000336,0.99191416,0.0000,01/18.8466/2024,2000,g  6.0,4.0
# From MPEC 2022-VC5
C/2022 J1 (Maury-Attard),e,105.9390,280.7334,305.6664,47.62265,0.0029991,0.96631159,1.3105,05/02.0/2023,2000,g 14.9,4.0
# From MPEC 2023-BF4
C/2022 J2 (Bok),e,149.0966,252.5620,133.0837,92.78404,0.0011028,0.98030106,0.0000,10/27.0948/2022,2000,g 15.5,4.0
# From MPEC 2023-HI0
C/2022 JK5 (PANSTARRS),e,16.8309,59.6526,247.1583,43.13375,0.0034792,0.93770679,0.0111,05/02.0/2023,2000,g 11.0,4.0
# From MPEC 2022-ST7
C/2022 K1 (Leonard),h,12/17.5219/2021,41.9652,136.2887,142.6874,1.002716,3.988293,2000,11.0,4.0
# From MPEC 2023-CD7
C/2022 L1 (Catalina),e,123.4663,300.0290,59.8548,538.6695,0.0000788,0.99704558,0.0000,09/28.2477/2022,2000,g 15.8,4.0
# From MPEC 2023-HD1
C/2022 L2 (ATLAS),h,03/12.3139/2024,129.3137,39.2422,199.9416,1.001386,2.692251,2000,10.2,4.0
# From MPEC 2023-HD1
P/2022 L3 (ATLAS),e,21.5432,29.8059,10.3286,6.501174,0.0594588,0.62777559,10.9433,05/02.0/2023,2000,g 12.7,4.0
# From MPEC 2022-N37
C/2022 L4 (PANSTARRS),e,141.2363,66.0536,125.3303,278.9261,0.0002116,0.98919076,0.0000,12/08.7941/2021,2000,g 14.0,4.0
# From MPEC 2022-WD2
P/2022 M1 (LONEOS-PANSTARRS),e,7.0237,322.8679,4.4373,4.888653,0.0911843,0.57856011,24.8738,05/02.0/2023,2000,g 17.0,4.0
# From MPEC 2023-FK0
C/2022 N1 (Attard-Maury),e,164.7401,301.8638,41.0746,37.05732,0.0043691,0.96001688,1.0221,05/02.0/2023,2000,g 16.9,4.0
# From MPEC 2022-QD9
C/2022 N2 (PANSTARRS),h,07/31.3885/2025,5.5029,319.7345,75.3629,1.004247,3.825187,2000,6.0,4.0
# From MPEC 2023-D72
C/2022 O1 (ATLAS),h,02/15.7296/2022,71.0428,49.9144,268.9001,1.004248,7.430607,2000,6.0,4.0
# From MPEC 2023-HD1
P/2022 O2 (PANSTARRS),e,9.4243,330.4906,48.6298,6.308791,0.0621992,0.72153130,7.1485,05/02.0/2023,2000,g 16.2,4.0
# From MPEC 2023-HD1
C/2022 P1 (NEOWISE),e,154.6068,205.0827,249.9376,18.44583,0.0124410,0.91351703,1.9224,05/02.0/2023,2000,g 12.8,4.0
# From MPEC 2023-G31
P/2022 P2 (ZTF),e,12.4415,291.2272,137.6136,4.485813,0.1037391,0.55805534,30.6200,05/02.0/2023,2000,g 12.5,4.0
# From MPEC 2023-HD1
C/2022 P3 (ZTF),e,59.5171,72.2320,0.1040,245.0616,0.0002569,0.98954745,0.0000,07/27.3691/2022,2000,g  9.0,4.0
# From MPEC 2023-HD1
C/2022 Q2 (ATLAS),e,151.4857,352.9440,44.0660,32.67156,0.0052778,0.94967695,0.4771,05/02.0/2023,2000,g 14.6,4.0
# From MPEC 2023-E68
C/2022 QE78 (ATLAS),h,09/10.3267/2025,36.5485,119.9442,0.3433,1.002860,5.482752,2000,5.0,4.0
# From MPEC 2022-WD2
P/2022 R1 (PANSTARRS),e,7.4036,176.1711,222.3866,7.220171,0.0508022,0.50535007,351.7821,05/02.0/2023,2000,g 11.5,4.0
# From MPEC 2022-Y15
C/2022 R2 (ATLAS),e,52.8974,60.4039,78.3728,420.8691,0.0001142,0.99849713,0.0000,10/25.2220/2022,2000,g 17.0,4.0
# From MPEC 2023-D41
C/2022 R3 (Leonard),h,03/05.1203/2023,43.0828,8.2384,72.8444,1.000629,5.129018,2000,9.0,4.0
# From MPEC 2022-X67
P/2022 R4 (PANSTARRS),e,21.0217,176.6242,197.4311,3.835995,0.1311859,0.49016397,38.7840,05/02.0/2023,2000,g 16.5,4.0
# From MPEC 2022-WQ9
P/2022 R5 (PANSTARRS),e,15.2940,115.0518,240.5876,3.069083,0.1833121,0.19544000,62.2445,05/02.0/2023,2000,g 16.0,4.0
# From MPEC 2023-G31
C/2022 R6 (PANSTARRS),h,08/25.6970/2025,57.0214,150.7622,319.8547,1.003401,6.568486,2000,5.0,4.0
# From MPEC 2023-HD1
P/2022 S1 (PANSTARRS),e,34.5820,136.0908,262.7603,6.407750,0.0607639,0.50815964,15.5456,05/02.0/2023,2000,g 15.1,4.0
# From MPEC 2022-VC5
C/2022 S3 (PANSTARRS),h,01/21.6844/2023,78.5519,157.3232,267.9651,1.000369,0.838403,2000,17.0,4.0
# From MPEC 2023-HD1
C/2022 S4 (Lemmon),h,07/17.8229/2024,101.0897,220.1547,268.3154,1.001494,2.767108,2000,12.3,4.0
# From MPEC 2023-HD1
C/2022 S5 (PANSTARRS),e,136.5326,214.8595,232.7787,20.39927,0.0106975,0.89319100,1.6639,05/02.0/2023,2000,g 16.3,4.0
# From MPEC 2023-HD1
C/2022 T1 (Lemmon),e,22.5431,236.9223,324.3251,6268,0.0000020,0.99945043,0.0000,02/17.5790/2024,2000,g 12.1,4.0
# From MPEC 2023-D41
C/2022 U1 (Leonard),e,128.1322,72.5060,78.5246,13939,0.0000006,0.99969849,0.0000,03/25.5716/2024,2000,g  8.5,4.0
# From MPEC 2023-HD1
C/2022 U2 (ATLAS),e,48.2487,304.4755,147.9121,95.97509,0.0010483,0.98616260,0.0000,01/14.2234/2023,2000,g 14.6,4.0
# From MPEC 2023-D41
C/2022 U3 (Bok),h,07/27.7131/2024,33.6232,272.8043,188.9757,1.003186,4.828854,2000,7.5,4.0
# From MPEC 2023-HD1
C/2022 U4 (Bok),e,52.0353,132.9286,89.0075,3710,0.0000044,0.99921867,0.0000,08/03.6790/2023,2000,g 13.2,4.0
# From MPEC 2023-CD7
P/2022 W1 (Rankin),e,13.4660,38.8164,17.7958,6.967032,0.0535960,0.51658790,12.2325,05/02.0/2023,2000,g 12.5,4.0
# From MPEC 2023-HD1
C/2022 W2 (ATLAS),e,63.5314,320.4502,123.2600,335.3865,0.0001605,0.99068894,0.0000,03/08.6920/2023,2000,g 13.3,4.0
# From MPEC 2023-HD1
C/2022 W3 (Leonard),e,103.5585,132.2689,116.5219,282.9424,0.0002071,0.99506014,0.0000,06/22.7760/2023,2000,g 14.2,4.0
# From MPEC 2023-D41
C/2022 Y1 (Hogan),e,18.8577,285.9139,174.7459,12.55455,0.0221566,0.76440677,3.4509,05/02.0/2023,2000,g 13.0,4.0
# From MPEC 2023-F81
C/2022 Y2 (Lemmon),e,165.9070,216.3495,105.5575,19.64229,0.0113218,0.87043373,0.4568,05/02.0/2023,2000,g 13.5,4.0
# From MPEC 2023-HD1
C/2023 A1 (Leonard),e,94.7422,318.3082,159.2505,229.2736,0.0002839,0.99199766,0.0000,03/18.7279/2023,2000,g 14.1,4.0
# From MPEC 2023-HD1
C/2023 A2 (SWAN),e,94.7087,94.4688,142.5694,484.4785,0.0000924,0.99804469,0.0000,01/20.3825/2023,2000,g  9.0,4.0
# From MPEC 2023-HD1
C/2023 A3 (Tsuchinshan-ATLAS),h,09/27.6734/2024,139.1182,21.5574,308.4880,1.000180,0.391273,2000,4.7,4.0
# From MPEC 2023-HD1
P/2023 B1 (PANSTARRS),e,14.5883,78.5829,81.3589,7.050842,0.0526432,0.12903750,0.1726,05/02.0/2023,2000,g  9.9,4.0
# From MPEC 2023-HD1
C/2023 B2 (ATLAS),e,40.7708,218.1205,317.3995,606.7097,0.0000660,0.99712691,0.0000,03/10.4959/2023,2000,g 14.3,4.0
# From MPEC 2023-F81
P/2023 B3 (PANSTARRS),e,9.1627,154.0061,239.8961,4.544291,0.1017431,0.12327631,98.7172,05/02.0/2023,2000,g 10.5,4.0
# From MPEC 2023-HD1
C/2023 C2 (ATLAS),e,48.3179,301.0316,357.4449,3835,0.0000042,0.99938241,0.0000,11/16.7919/2024,2000,g 10.8,4.0
# From MPEC 2023-HD1
C/2023 E1 (ATLAS),e,38.3140,164.5748,105.8931,19.35165,0.0115778,0.94694946,359.3041,05/02.0/2023,2000,g 16.3,4.0
# From MPEC 2023-HI4
C/2023 F1 (PANSTARRS),e,131.7521,25.2475,216.6564,262.1596,0.0002322,0.99348443,0.0000,06/28.3551/2023,2000,g 16.0,4.0
# From  98, 1083
1P/Halley,e,162.1642,59.4657,112.3783,17.86829,0.0130491,0.96683824,177.1303,05/02.0/2023,2000,g  4.0,6.0
# From MPEC 2022-Y15
2P/Encke,e,11.3421,334.0447,187.2636,2.219225,0.2981274,0.84702310,308.2716,05/02.0/2023,2000,g 11.5,6.0
# From MPEC 2023-FK0
4P/Faye,e,8.0092,192.9238,207.0576,3.827000,0.1316486,0.57683044,78.9934,05/02.0/2023,2000,g  8.0,6.0
# From MPEC 2022-WD2
6P/d'Arrest,e,19.5096,138.9409,178.0910,3.497062,0.1507124,0.61241492,89.1279,05/02.0/2023,2000,g  7.5,16.0
# From MPEC 2023-A50
7P/Pons-Winnecke,e,22.3768,93.3218,172.5326,3.409263,0.1565717,0.63858980,110.3932,05/02.0/2023,2000,g 10.0,6.0
# From MPEC 2022-HC2
8P/Tuttle,e,54.9386,270.1915,207.4702,5.703454,0.0723598,0.82022125,44.3018,05/02.0/2023,2000,g  8.0,8.0
# From MPEC 2023-B57
9P/Tempel,e,10.4838,68.5685,179.6685,3.153540,0.1759975,0.50993298,74.3705,05/02.0/2023,2000,g  5.5,10.0
# From MPEC 2023-HD1
10P/Tempel,e,12.0346,117.8148,195.5266,3.061789,0.1839675,0.53803021,141.4696,05/02.0/2023,2000,g 13.2,4.0
# From MPEC 2023-A50
11P/Tempel-Swift-LINEAR,e,14.4300,238.8703,167.9976,3.283842,0.1656268,0.57748612,146.8005,05/02.0/2023,2000,g 17.0,4.0
# From MPEC 2023-HD1
12P/Pons-Brooks,e,74.1886,255.8487,198.9852,17.17865,0.0138427,0.95453484,355.0838,05/02.0/2023,2000,g 11.2,4.0
# From  27, 604
13P/Olbers,e,44.6264,85.9129,64.3918,16.86340,0.0142327,0.93032381,353.9397,05/02.0/2023,2000,g  5.0,6.0
# From MPEC 2021-F20
14P/Wolf,e,27.9277,202.0404,159.1210,4.257886,0.1121794,0.35714597,221.4464,05/02.0/2023,2000,g  5.5,12.0
# From MPEC 2022-ED3
15P/Finlay,e,6.7975,13.7118,347.8768,3.508620,0.1499683,0.71695451,98.6044,05/02.0/2023,2000,g 12.0,4.0
# From MPEC 2022-X67
16P/Brooks,e,3.0112,138.8664,245.2690,3.659397,0.1407958,0.48639774,104.6855,05/02.0/2023,2000,g  7.5,10.0
# From MPEC 2023-BF4
17P/Holmes,e,19.0261,326.6287,24.5762,3.638373,0.1420179,0.42738487,113.7676,05/02.0/2023,2000,g 10.0,6.0
# From MPEC 2023-HD1
19P/Borrelly,e,29.3071,74.2299,351.9460,3.606700,0.1438928,0.63781642,65.3443,05/02.0/2023,2000,g 10.2,4.0
# From MPEC 2021-F20
21P/Giacobini-Zinner,e,32.0585,195.3451,172.8964,3.494588,0.1508725,0.71124404,255.3779,05/02.0/2023,2000,g 11.4,4.0
# From MPEC 2023-BF4
22P/Kopff,e,4.7421,120.7439,162.9947,3.439566,0.1545071,0.54953191,63.3193,05/02.0/2023,2000,g  3.0,10.4
# From MPC 14747
23P/Brorsen-Metcalf,e,19.2585,311.9390,129.2460,16.94254,0.0141331,0.97218888,0.0000,08/12.3210/1989,2000,g 10.0,6.0
# From MPC110085
24P/Schaumasse,e,11.5033,78.3197,58.4548,4.055308,0.1206892,0.70774805,241.3892,05/02.0/2023,2000,g  6.5,14.0
# From MPEC 2022-Y15
26P/Grigg-Skjellerup,e,22.4331,211.5414,2.1497,3.015442,0.1882251,0.64054078,315.3239,05/02.0/2023,2000,g 12.0,16.0
# From MPC 78188
27P/Crommelin,e,29.3734,250.6754,195.8530,9.180518,0.0354326,0.91910178,152.3097,05/02.0/2023,2000,g 12.0,8.0
# From MPEC 2023-FK0
28P/Neujmin,e,14.3101,346.3458,347.4681,6.981755,0.0534265,0.77354795,41.7397,05/02.0/2023,2000,g  8.5,6.0
# From MPEC 2023-HD1
29P/Schwassmann-Wachmann,e,9.3628,312.3997,51.2521,6.048827,0.0662518,0.04461794,97.3089,05/02.0/2023,2000,g  7.8,4.0
# From MPEC 2023-CD7
30P/Reinmuth,e,8.0561,117.4475,9.4506,3.734233,0.1365847,0.51573488,295.3892,05/02.0/2023,2000,g  9.5,6.0
# From MPEC 2021-F20
31P/Schwassmann-Wachmann,e,4.5486,114.1048,17.8765,4.234979,0.1130908,0.19243668,158.1729,05/02.0/2023,2000,g 13.1,4.0
# From MPEC 2022-K19
32P/ComasSola,e,9.9141,54.5513,54.7309,4.559131,0.1012467,0.55648863,324.1201,05/02.0/2023,2000,g  6.5,8.0
# From MPEC 2013-O31
